Address,City,State,Zip
"3795 Beltline Rd",Addison,TX,75244
"104 Central Expy",Allen,TX,"75002-2771"
"815 S Allen Heights Dr",Allen,TX,75002
"370 E Stacy Rd",Allen,TX,75002
"1200 Hwy 67 W",Alvarado,TX,76009
"1317 W White",Anna,TX,75409
"4300 S Cooper",Arlington,TX,"76015-4217"
"5700 Forest Bend Drive",Arlington,TX,76017
"5404 S Cooper",Arlington,TX,"76017-6108"
"800 W Pioneer Parkway",Arlington,TX,76013
"4841 W Sublett Rd",Arlington,TX,76017
"2391 N Collins",Arlington,TX,"76011-2627"
"6230 Matlock Rd",Arlington,TX,"76002-2717"
"860 E I 20",Arlington,TX,76018
"2575 E Arkansas Ln",Arlington,TX,76011
"611 W Abrams St",Arlington,TX,"76010-1018"
"1704 W Randol Mill Rd",Arlington,TX,76012
"915 E Randol Mill Rd",Arlington,TX,"76011-6017"
"1105 E Tyler",Athens,TX,"75751-2145"
"597 Northwest Pky",Azle,TX,"76020-2913"
"3535 Glenshire Drive","Balch Springs",TX,"75180-2215"
"3350 Harwood Road",Bedford,TX,"76021-3904"
"2100 Central Park Boulevard",Bedford,TX,"76022-6100"
"8516 Hwy 377 S",Benbrook,TX,76126
"2241 N Center St",Bonham,TX,75418
"501 US Hwy 380",Bridgeport,TX,76426
"441 S Craigs Drive",Buffalo,TX,75831
"986 Burleson Blvd",Burleson,TX,76028
"911 Sw Wilshire Blvd",Burleson,TX,76028
"2725 Fm1903","Caddo Mills",TX,75135
"2254 Trade Days Blvd",Canton,TX,75103
"1050 W Frankford",Carrollton,TX,"75007-4845"
"2151 N Josey Ln",Carrollton,TX,"75006-2968"
"1753 S Interstate 35e",Carrollton,TX,75006
"4125 Josey Ln",Carrollton,TX,75007
"201 Fm 1382","Cedar Hill",TX,75104
"994 S Preston Rd",Celina,TX,75009
"710 State Hwy 31 E",Chandler,TX,75758
"1435 W Henderson",Cleburne,TX,76031
"2206 N Main",Cleburne,TX,76031
"5609 Colleyville Blvd",Colleyville,TX,76034
"2102 Live Oak Street",Commerce,TX,"75428-2438"
"125 S Denton Tap Rd",Coppell,TX,"75019-3204"
"813 Macarthur Blvd",Coppell,TX,75019
"1934 Martin Luther King Blvd",Corsicana,TX,75110
"3500 W 7th St",Corsicana,TX,75110
"1115 Loop 304",Crockett,TX,75835
"11201 US Hwy 380","Cross Roads",TX,76227
"464 E Main",Crowley,TX,76036
"13105 Montfort Dr",Dallas,TX,"75240-5112"
"2475 Royal Ln",Dallas,TX,"75229-3416"
"11749 Plano Rd",Dallas,TX,75243
"3520 Storey Ln",Dallas,TX,75220
"7401 Samuell Blvd",Dallas,TX,"75228-6166"
"9301 Forest Ln",Dallas,TX,75243
"2551 Gus Thomasson Rd",Dallas,TX,75228
"5337 E Grand Ave",Dallas,TX,75223
"10320 Lake June Road",Dallas,TX,75217
"5722 W Lovers Ln",Dallas,TX,"75209-5116"
"2197 W Northwest Hwy",Dallas,TX,75225
"7007 Wheatland",Dallas,TX,"75249-1067"
"8390 N Stemmons",Dallas,TX,75247
"17250 Preston Rd",Dallas,TX,75252
"8117 E Rl Thornton Fwy",Dallas,TX,"75228-7003"
"450 Merrifield Rd",Dallas,TX,75211
"14770 Preston Rd",Dallas,TX,75240
"705 W Jefferson",Dallas,TX,"75208-4926"
"7233 John W. Carpenter Freeway",Dallas,TX,75247
"8333 S Lancaster Rd",Dallas,TX,75241
"1415 E Illinois",Dallas,TX,75212
"8606 Skillman St",Dallas,TX,75243
"3026 Hampton Rd",Dallas,TX,75212
"17606 Midway Rd",Dallas,TX,"75287-6739"
"3750 Forest Ln",Dallas,TX,75229
"11820 Abrams Road",Dallas,TX,75243
"125 W Camp Wisdom",Dallas,TX,"75232-3662"
"1808 S Beltline Rd",Dallas,TX,"75253-4907"
"2570 W Redbird Ln",Dallas,TX,75236
"8055 S Loop 12",Dallas,TX,"75217-6641"
"10720 Preston Rd",Dallas,TX,"75230-3807"
"11102 Central Expy",Dallas,TX,75243
"2215 S Buckner Blvd",Dallas,TX,75201
"4330 Dallas Ft Worth Turnpike",Dallas,TX,75211
"2747 Fort Worth Ave",Dallas,TX,75211
"Terminal A, Gate 16",Dallas,TX,75261
"13040 Coit Rd",Dallas,TX,"75240-5724"
"13350 Dallas Pky",Dallas,TX,75240
"310 W Kiest",Dallas,TX,75224
"4439 Lemmon Ave",Dallas,TX,"75219-2143"
"650 N Riverfront Blvd",Dallas,TX,75207
"1000 Commerce St",Dallas,TX,"75202-3716"
"3310 Al Lipscomb Way",Dallas,TX,75210
"5403 Ross Ave",Dallas,TX,"75206-7420"
"3802 Gaston Ave",Dallas,TX,75246
"4151 N Central Expy",Dallas,TX,75206
"700 N Pearl St",Dallas,TX,75201
"632 S Rl Thornton Fwy",Dallas,TX,75203
"6950 Greenville Ave",Dallas,TX,75231
"4223 W Illinois",Dallas,TX,"75211-8458"
"2407 S Hampton Rd",Dallas,TX,75233
"8435 S Hampton",Dallas,TX,75232
"5934 Abrams Rd",Dallas,TX,"75231-8002"
"5960 Greenville Ave",Dallas,TX,"75206-1907"
"11217 Garland Rd",Dallas,TX,75218
"10695 E Northwest Hwy",Dallas,TX,75238
"9403 Garland Road",Dallas,TX,75218
"18121 Marsh Lane",Dallas,TX,75287
"908 Hwy 380",Decatur,TX,76234
"600 Hwy 75 N",Denison,TX,"75020-1323"
"306 W University Dr",Denton,TX,"76201-1840"
"2930 W University",Denton,TX,76207
"5016 Teasley Lane",Denton,TX,76210
"2120 Loop 288",Denton,TX,76205
"735 Fort Worth Dr",Denton,TX,76205
"804 N Hampton Rd",Desoto,TX,75115
"909 N Beckley Ave",Desoto,TX,"75115-4207"
"DFW Airport - Term C Gate 22","DFW Airport",TX,76261
"DFW Airport - Term D Gate 34","DFW Airport",TX,75261
"Terminal B, Gate 41","DFW Airport",TX,75261
"DFW Airport - Term A Gate 35","DFW Airport",TX,75261
"806 S Cockrell Hill Rd",Duncanville,TX,75137
"120 W. I 20",Duncanville,TX,75116
"1203 E Ennis Ave",Ennis,TX,"75119-5120"
"105 Spur 350",Euless,TX,76039
"669 W Hwy 84",Fairfield,TX,"75840-9512"
"13950 Midway Rd","Farmers Branch",TX,75234
"2899 Valley View Lane","Farmers Branch",TX,75234
"2109 Long Prairie Rd","Flower Mound",TX,75022
"3601 Fm 407","Flower Mound",TX,75077
"3200 Se Loop 820","Forest Hill",TX,76140
"102 E US Hwy 80",Forney,TX,"75126-8663"
"60 Fm 1641",Forney,TX,75126
"14100 Centre Station Drive","Fort Worth",TX,76155
"9559 Clifford Ave","Fort Worth",TX,76108
"700 E Berry St","Fort Worth",TX,76110
"3012 W Berry Street","Fort Worth",TX,76109
"5421 Sycamore School Rd","Fort Worth",TX,76123
"3500 Alta Mesa Blvd","Fort Worth",TX,"76133-5602"
"3000 E Berry Street","Fort Worth",TX,76119
"8651 S Freeway","Fort Worth",TX,76140
"4800 South Fwy","Fort Worth",TX,76115
"2832 N Main St","Fort Worth",TX,"76106-7106"
"2451 Meacham Boulevard","Fort Worth",TX,76106
"3041 Western Center","Fort Worth",TX,76131
"15957 North Freeway TX-114","Fort Worth",TX,76177
"1500 S Main St","Fort Worth",TX,76104
"525 Alta Mere Drive","Fort Worth",TX,76116
"12540 No Beach St","Fort Worth",TX,76248
"3901 Airport Freeway","Fort Worth",TX,"76111-5938"
"3601 Camp Bowie Blvd","Fort Worth",TX,76107
"4420 Western Center Blvd","Fort Worth",TX,76137
"2400 Alliance Gateway Freeway","Fort Worth",TX,76178
"3250 Heritage Trace Parkway","Fort Worth",TX,76248
"2248 Jacksboro Hwy","Fort Worth",TX,76106
"4101 E Lancaster Ave","Fort Worth",TX,76103
"2250 E Loop 820","Fort Worth",TX,"76112-4013"
"4405 Sw Loop 820","Fort Worth",TX,76132
"6401 Camp Bowie Boulevard","Fort Worth",TX,76116
"5901 Bryant Irvin Road","Fort Worth",TX,76132
"4375 Risinger Road","Fort Worth",TX,76123
"3300 Hulen St","Fort Worth",TX,76107
"6356 Jacksboro Hwy","Fort Worth",TX,76135
"1420 Eastchase Pky","Fort Worth",TX,76112
"13124 Hwy 287","Fort Worth",TX,76052
"8970 Preston Rd",Frisco,TX,75034
"4360 Legacy Dr",Frisco,TX,75034
"8888 Teel Parkway",Frisco,TX,75034
"6225 Custer Road",Frisco,TX,75035
"5615 Eldorado Prkwy",Frisco,TX,75034
"16125 Eldorado",Frisco,TX,75035
"5555 Fm 423",Frisco,TX,75034
"5124 N Tarrant Parkway","Ft. Worth",TX,76244
"514 W California",Gainesville,TX,"76240-3802"
"119 E Buckingham",Garland,TX,"75040-4707"
"3205 S Garland",Garland,TX,75041
"3310 Lavon Dr",Garland,TX,75040
"190 Shiloh",Garland,TX,75044
"3285 Broadway Blvd",Garland,TX,75041
"1110 W Centerville",Garland,TX,75041
"1404 W Walnut",Garland,TX,75042
"509 I 30 W",Garland,TX,75040
"1700 N Wood Street",Gilmer,TX,75644
"1100 E Broadway",Gladewater,TX,75647
"1101 S Morgan",Granbury,TX,"76048-2814"
"3908 Hwy 377 East",Granbury,TX,76049
"2225 W I-20","Grand Prairie",TX,75052
"3902 S Great Sw Pky","Grand Prairie",TX,"75051-7274"
"102 W Hwy 303","Grand Prairie",TX,75051
"308 Westchase Dr","Grand Prairie",TX,75052
"3031 W Camp Wisdom Road","Grand Prairie",TX,75053
"2810 Ne Green Oaks","Grand Prairie",TX,75050
"813 E Main","Grand Prairie",TX,75050
"101 E TX-114",Grapevine,TX,76051
"5345 William D Tate",Grapevine,TX,76051
"4705 Moulton Street",Greenville,TX,"75401-6091"
"104 W Main St",Gunbarrel,TX,75147
"404 W Main",Hallsville,TX,"75650-5180"
"5641 E Belknap","Haltom City",TX,76117
"2130 S Hwy 79",Henderson,TX,"75654-4406"
"8300 S Stemmons Freeway","Hickory Creek",TX,"75065-7590"
"1504 Corsicana Hwy",Hillsboro,TX,"76645-2720"
"2980 Fort Worth Highway","Hudson Oaks",TX,76087
"769 Airport Freeway",Hurst,TX,76053
"1401 W Pipeline Rd",Hurst,TX,"76053-4628"
"450 Grapevine Hwy",Hurst,TX,76053
"108 N I-45",Hutchins,TX,75141
"750 W Lbj Fwy",Irving,TX,75063
"1308 E Airport Fwy",Irving,TX,"75062-4817"
"4959 N O'connor Road",Irving,TX,75038
"2410 N Story Rd",Irving,TX,"75062-7068"
"4202 W Airport Fwy",Irving,TX,"75062-5915"
"4098 Beltline Rd",Irving,TX,"75038-5043"
"8435 N Beltline Road",Irving,TX,75063
"302 W Irving Blvd",Irving,TX,"75060-2921"
"5220 N Mac Arthur Dr",Irving,TX,75039
"100 Kinfolk Lane",Italy,TX,76651
"402 S Jackson St",Jacksonville,TX,"75766-4916"
"2215 So Washington",Kaufman,TX,75142
"2001 Rufe Snow Dr",Keller,TX,"76248-5634"
"989 E Price",Keller,TX,76248
"1298 West Mansfield Hwy",Kennedale,TX,76140
"906 Hwy 259 N",Kilgore,TX,"75662-6046"
"1463 W Pleasant Run Rd",Lancaster,TX,75146
"1598 W Main St",Lewisville,TX,"75067-3393"
"501 E Fm 3040",Lewisville,TX,75028
"1107 W Fm3040",Lewisville,TX,75067
"2301 S Hwy 121",Lewisville,TX,"75067-8130"
"1201 W Fm 407",Lewisville,TX,75067
"765 W Main St",Lewisville,TX,75067
"4640 State Highway 121",Lewisville,TX,75056
"3511 South Main Street",Lindale,TX,75711
"2670 Fm 423","Little Elm",TX,75068
"128 W Loop 281",Longview,TX,75601
"3086 N Eastman Road",Longview,TX,75605
"408 E Marshall Ave",Longview,TX,"75601-5422"
"1803 Nw Loop 281",Longview,TX,75601
"3118 Estes Parkway",Longview,TX,"75602-4234"
"1118 S Timberland Dr",Lufkin,TX,"75901-4726"
"3301 S 1st St",Lufkin,TX,"75901-7315"
"110 South John Redditt Drive",Lufkin,TX,75904
"19001 East US Highway 175",Mabank,TX,75147
"101 E Royall Blvd",Malakoff,TX,75148
"1001 Hwy 287 N",Mansfield,TX,"76063-4801"
"1250 N Holland Road",Mansfield,TX,76063
"402 N Central Expy",Mckinney,TX,75070
"6750 W Virginia Pky",Mckinney,TX,75070
"240 W Eldorado Pkwy",Mckinney,TX,75069
"5251 University Dr.",Mckinney,TX,75071
"1810 W University",Mckinney,TX,75069
"3200 Eldorado",Mckinney,TX,75070
"1817 N Beltline Rd",Mesquite,TX,"75149-1718"
"1531 Towneast Blvd",Mesquite,TX,75150
"18751 Ih 635",Mesquite,TX,75150
"4450 Gus Thomasson Rd",Mesquite,TX,75150
"2012 Scyene Rd",Mesquite,TX,"75149-3644"
"1444 S Beltline Rd",Mesquite,TX,75149
"903 E Milam Rd",Mexia,TX,"76667-2526"
"1310 US Hwy 287 E",Midlothian,TX,76065
"1202 N Pacific",Mineola,TX,"75773-1020"
"100 Garret Morris Pky","Mineral Wells",TX,"76067-9612"
"906 Hwy 37","Mount Vernon",TX,75457
"114 East Fm 544",Murphy,TX,75094
"1717 North St",Nacogdoches,TX,"75961-3421"
"3120 University Dr",Nacogdoches,TX,75961
"8549 Davis Blvd","North Richland Hills",TX,76182
"5140 Rufe Snow","North Richland Hills",TX,76118
"7451 Davis Blvd","North Richland Hills",TX,76180
"2120 S Loop 256",Palestine,TX,"75801-5920"
"2422 W Pioneer Pky",Pantego,TX,76013
"3825 Lamar Avenue",Paris,TX,"75462-5210"
"1226 - 1230 S. Hwy 377","Pilot Point",TX,76258
"605 E 15th St",Plano,TX,"75074-5709"
"2100 W 15th St",Plano,TX,75034
"4925 W Park Blvd",Plano,TX,75075
"216 Coit Rd",Plano,TX,75075
"6220 W Park Blvd",Plano,TX,75093
"6001 W Parker Rd",Plano,TX,75093
"400 Jupiter Rd",Plano,TX,75074
"701 W Spring Creek",Plano,TX,"75023-4604"
"3957 Legacy Dr",Plano,TX,75023
"4005 W Parker Rd",Plano,TX,75023
"2205 Mcdermott Rd",Plano,TX,"75025-4613"
"6201 Independence Pky",Plano,TX,75023
"5004 State Hwy 121",Plano,TX,75024
"103 E Princeton Dr",Princeton,TX,"75407-9002"
"4500 W. University Dr.",Prosper,TX,75034
"8840 Hwy 34 South",Quinlan,TX,75474
"109 Harris Avenue","Red Oak",TX,75154
"4800 E Hwy 114",Rhome,TX,76179
"1251 E Belt Line Rd",Richardson,TX,"75081-3708"
"170 W Campbell Rd",Richardson,TX,75080
"105 S Coit Rd",Richardson,TX,"75080-5721"
"550 Centennial Blvd",Richardson,TX,75081
"120 S Central Expressway",Richardson,TX,75080
"2198 E Arapaho Rd",Richardson,TX,75081
"7305 Airport Freeway","Richland Hills",TX,76118
"1100 N Highway 377",Roanoke,TX,76262
"610 E I 30",Rockwall,TX,"75087-5501"
"3066 N Goliad Street",Rockwall,TX,75087
"3505 Lakeview Parkway",Rowlett,TX,75085
"8503 Lakeview Parkway",Rowlett,TX,75088
"200 W Ih 30","Royse City",TX,75189
"516 S Dickenson Dr",Rusk,TX,75785
"5230 Hwy 78",Sachse,TX,75048
"5321 Blue Mound Rd",Saginaw,TX,76106
"1165 N Saginaw Blvd",Saginaw,TX,76179
"601 N Stemmons St",Sanger,TX,76266
"100 N Hwy 175",Seagoville,TX,75159
"2217 Texoma Pky N",Sherman,TX,"75090-2871"
"3612 S. Hwy 75",Sherman,TX,75092
"225 N Kimball",Southlake,TX,76092
"421 E Hwy 199",Springtown,TX,76082
"1416 W Washington St",Stephenville,TX,"76401-4141"
"2819 W Washington St",Stephenville,TX,76401
"121 E Shannon Rd","Sulphur Springs",TX,"75482-4822"
"1704 Hwy 34 S",Terrell,TX,"75160-5300"
"91 State Highway 205",Terrell,TX,75160
"505 S Robb St",Trinity,TX,75862
"1300 S Beckham Ave",Tyler,TX,"75701-3322"
"3109 W Gentry Place",Tyler,TX,"75702-1310"
"2705 E 5th St",Tyler,TX,"75701-5022"
"180 Loop 323 Ssw",Tyler,TX,75702
"4014 S Broadway",Tyler,TX,"75701-8717"
"5802 S Broadway",Tyler,TX,"75703-4349"
"2034 E Se Loop 323",Tyler,TX,"75701-8316"
"12881 Fm 14",Tyler,TX,75706
"5894 Old Jacksonville Hwy",Tyler,TX,75703
"1001 W Stephens","Van Alstyne",TX,75495
"7040 Denton Hwy",Watauga,TX,"75116-1911"
"1449 Fm 66",Waxahachie,TX,75165
"1207 N Hwy 77",Waxahachie,TX,"75165-5115"
"2407 S Main",Weatherford,TX,"76086-6141"
"609 E US Hwy 80","White Oak",TX,75693
"603 Hwy 110",Whitehouse,TX,75791
"871 Hwy 377 N",Whitesboro,TX,76273
"1317-a N Brazos",Whitney,TX,76692
"5090 I-h 20 East Service Road","Willow Park",TX,76008
"136 E South Commerce St","Wills Point",TX,75169
"314 E Coke Road",Winnsboro,TX,75494
"415 S Hwy 78",Wylie,TX,"75098-3946"
"2239 Shoreline Dr",Alameda,CA,"94501-6227"
"715 Central Ave",Alameda,CA,"94501-3818"
"2424 Mahogany Way",Antioch,CA,"94509-2966"
"4440 Lone Tree Way",Antioch,CA,94509
"3450 Deer Valley Rd",Antioch,CA,94509
"4893 Lone Tree Way",Antioch,CA,94509
"410 Grand Ave Po Box 306","Arroyo Grande",CA,93420
"16552 E 14th Street",Ashland,CA,94578
"6300 Morro Rd",Atascadero,CA,93422
"220 Bailey Road","Bay Point",CA,94565
"522 El Camino Real",Belmont,CA,"94002-2121"
"1602 E 2nd St",Benicia,CA,94510
"2110 Columbus Parkway",Benicia,CA,94510
"1198 San Pablo Ave",Berkeley,CA,"94706-2245"
"1998 Shattuck Ave",Berkeley,CA,"94704-1032"
"7455 Brentwood Blvd",Brentwood,CA,"94513-2026"
"2351 Balfour Rd",Brentwood,CA,94513
"337 Mcmurray Rd",Buellton,CA,93427
"1760 41st Ave",Capitola,CA,"95010-2503"
"2905 Grove Way","Castro Valley",CA,94546
"1620 Strobridge Ave","Castro Valley",CA,94546
"15940 Dam Rd",Clearlake,CA,95422
"1149 S Cloverdale Blvd",Cloverdale,CA,95425
"4550 Clayton Rd",Concord,CA,"94521-2850"
"1691 Monument Blvd",Concord,CA,"94520-4101"
"107 Sun Valley Mall",Concord,CA,94520
"10990 N Stelling Rd",Cupertino,CA,95014
"2450 Junipero Serra Blvd","Daly City",CA,"94015-1632"
"505 Serramonte Blvd","Daly City",CA,"94015-4372"
"2750 Geneva Ave","Daly City",CA,"94014-1521"
"10000 Crow Canyon Rd",Danville,CA,94526
"14896 Highway 4","Discovery Bay",CA,94514
"7145 Dublin Ave",Dublin,CA,94568
"2401 University Ave","East Palo Alto",CA,94303
"1721 E Bayshore Avenue","East Palo Alto",CA,94303
"11821 San Pablo Ave","El Cerrito",CA,"94530-1751"
"2715 Black Oak Dr","El Paso De Robles",CA,93446
"4400 Central Pl",Fairfield,CA,94533
"1101 Triton Dr","Foster City",CA,"94404-1213"
"40708 Grimmer Blvd",Fremont,CA,"94538-2845"
"38860 Fremont Blvd",Fremont,CA,"94536-6909"
"42800 Mission Blvd",Fremont,CA,"94539-5301"
"3990 Decoto Rd",Fremont,CA,94536
"4101 Cushing Pky",Fremont,CA,94536
"4318 Thornton Ave",Fremont,CA,"94536-4828"
"1190 S Main St","Ft Bragg",CA,95437
"7150 Camino Arroyo (W*m #2002)",Gilroy,CA,95020
"797 First St",Gilroy,CA,"95020-4918"
"6990 Automall Parkway",Gilroy,CA,"95020-6635"
"8390 Arroyo Circle",Gilroy,CA,95020
"146 S Fairview Avenue",Goleta,CA,93117
"6900 Marketplace Drive",Goleta,CA,93117
"805 5th St",Gonzales,CA,93926
"501 El Camino Real",Greenfield,CA,93927
"1550 Grand Ave","Grover Beach",CA,93433
"100 N Cabrillo Hwy","Half Moon Bay",CA,"94019-1609"
"18708 Hesperian Blvd",Hayward,CA,"94541-2248"
"2299 W Tennyson Rd",Hayward,CA,"94545-4233"
"23989 Watkins St",Hayward,CA,"94544-1028"
"26253 Mission Blvd",Hayward,CA,"94544-3030"
"355 W A St",Hayward,CA,94541
"30147 Industrial Parkway Southwest",Hayward,CA,"94544-6905"
"110 Healdsburg Ave",Healdsburg,CA,"95448-4018"
"1570 Sycamore Ave",Hercules,CA,"94547-1701"
"151 San Felipe Rd",Hollister,CA,"95023-3029"
"1711 Airline Hwy",Hollister,CA,95023
"1350 Broadway Cir","King City",CA,"93930-3528"
"3459 Mt Diablo Blvd",Lafayette,CA,94549
"1077 Lakeport Blvd",Lakeport,CA,"95453-0058"
"283 N P St",Livermore,CA,"94550-3013"
"4528 Las Positas Rd",Livermore,CA,94550
"805 N Vasco Road",Livermore,CA,94550
"835 North H St",Lompoc,CA,"93436-4146"
"15475 Los Gatos Blvd","Los Gatos",CA,"95032-2501"
"267 Reservation Rd",Marina,CA,"93933-3185"
"1185 Arnold Dr",Martinez,CA,"94553-4104"
"1100 El Camino Real","Menlo Park",CA,"94025-4308"
"600 Redwood Hwy","Mill Valley",CA,"94941-3071"
"1101 El Camino Real",Millbrae,CA,94030
"1854 N Milpitas Blvd",Milpitas,CA,"95035-2714"
"1249 Great Mall Dr",Milpitas,CA,95035
"41 Ranch Dr",Milpitas,CA,95035
"1795 Landess Ave",Milpitas,CA,"95035-7033"
"99 N Milpitas Blvd",Milpitas,CA,"95035-4402"
"610 Del Monte Ave",Monterey,CA,"93940-2455"
"201 Vineyard Town Ctr","Morgan Hill",CA,"95037-5445"
"135 Cochrane Plz","Morgan Hill",CA,"95037-2812"
"17025 Condit Rd","Morgan Hill",CA,95037
"780 Quintana Rd","Morro Bay",CA,"93442-1940"
"952 El Monte Ave","Mountain View",CA,"94040-2355"
"1060 Rengstorff Ave","Mountain View",CA,94043
"3224 Jefferson St",Napa,CA,"94558-3436"
"806 Imola Ave",Napa,CA,94558
"3000 Newpark Mall Rd",Newark,CA,"94560-5204"
"35192 Newark Blvd",Newark,CA,"94560-1220"
"460 W Tefft Rd",Nipomo,CA,93444
"7340 Redwood Hwy",Novato,CA,"94947-3212"
"5600 Nave Dr",Novato,CA,94949
"2520 E 12th St",Oakland,CA,"94601-1502"
"9725 E 14th St",Oakland,CA,"94603-2509"
"6300 East 14th Street",Oakland,CA,"94621-3826"
"7300 Bancroft Avenue",Oakland,CA,94605
"640 Hegenberger Rd",Oakland,CA,"94621-1914"
"6623 San Pablo Ave",Oakland,CA,"94608-1237"
"4514 Telegraph Ave",Oakland,CA,"94609-2020"
"1330 Jackson St",Oakland,CA,"94612-4008"
"800 Market St",Oakland,CA,"94607-3116"
"4010 Alameda Ave",Oakland,CA,94601
"914 Main St",Oakley,CA,94509
"1150 E Clark Ave",Orcutt,CA,93455
"125 Monterey Rd",Pacifica,CA,"94044-1332"
"576 Linda Mar Blvd",Pacifica,CA,94044
"3128 El Camino Real","Palo Alto",CA,"94306-2211"
"208 Stanford Shopping Ctr","Palo Alto",CA,94304
"186 Niblick Rd","Paso Robles",CA,93446
"1859 Ramada Drive","Paso Robles",CA,93446
"103 Mcdowell Blvd",Petaluma,CA,"94952-2304"
"981 Lakeville Hwy",Petaluma,CA,"94952-3329"
"1402 Tara Hills Dr",Pinole,CA,"94564-2517"
"350 Five Cities Drive","Pismo Beach",CA,93449
"460 Atlantic Ave",Pittsburg,CA,"94565-5240"
"2203 Loveridge Ln",Pittsburg,CA,94565
"1690 Contra Costa Blvd","Pleasant Hill",CA,94523
"624 Contra Costa Blvd","Pleasant Hill",CA,94523
"1004 Stoneridge Mall",Pleasanton,CA,"94588-3217"
"6800 Santa Rita Rd",Pleasanton,CA,94588
"3001 Bernal Avenue",Pleasanton,CA,94566
"185 Chestnut St","Redwood City",CA,"94063-2105"
"709 Woodside Rd","Redwood City",CA,94063
"2301 Macdonald Ave",Richmond,CA,"94804-1820"
"3350 Klose Way",Richmond,CA,94806
"6600 Commerce Blvd","Rohnert Park",CA,94931
"1702 E Cotati Ave","Rohnert Park",CA,"94928-3605"
"17537 Vierra Canyon Rd",Salinas,CA,"93907-3309"
"840 E Alisal St",Salinas,CA,"93901-2606"
"600 East Boranda Drive",Salinas,CA,93906
"608 Williams Rd",Salinas,CA,93905
"155 Kern St",Salinas,CA,93905
"1365 N Main St",Salinas,CA,"93901-2828"
"1213 S Main St",Salinas,CA,"93901-2207"
"180 El Camino Real","San Carlos",CA,"94070-2404"
"1201 Ocean Ave","San Francisco",CA,"94112-1830"
"609 Market St","San Francisco",CA,"94105-3301"
"1100 Fillmore St","San Francisco",CA,94102
"145 Jefferson St","San Francisco",CA,94133
"2801 Mission St","San Francisco",CA,"94110-3907"
"345 Bayshore Blvd","San Francisco",CA,"94124-1506"
"5454 Mission St","San Francisco",CA,94110
"255 Winston Dr","San Francisco",CA,"94132-1921"
"235 N Front St","San Francisco",CA,94111
"302 Potrero Ave","San Francisco",CA,94110
"5411 3rd Street","San Francisco",CA,94124
"441 Sutter St","San Francisco",CA,94108
"2434 Almaden Rd","San Jose",CA,"95125-2108"
"1033 E Capitol Expwy","San Jose",CA,"95121-2415"
"585 Tully Rd","San Jose",CA,"95112-1920"
"777 Story Rd","San Jose",CA,95122
"715 W Capital Auto Mall Expy","San Jose",CA,95136
"1435 S Winchester Blvd","San Jose",CA,"95128-4331"
"898 S Bascom Ave","San Jose",CA,"95128-2605"
"3221 S White Rd","San Jose",CA,"95148-4056"
"1869 Camden Ave","San Jose",CA,"95124-3022"
"5122 Stevens Creek Blvd","San Jose",CA,95129
"1398 W San Carlos","San Jose",CA,95126
"4838 San Felipe Rd","San Jose",CA,95135
"202 Eastridge Mall Relo","San Jose",CA,"95122-1404"
"2191 Monterey Highway","San Jose",CA,95125
"2699 Union Avenue","San Jose",CA,95124
"456 Blossom Hill Rd","San Jose",CA,"95123-3301"
"105 Bernal Rd","San Jose",CA,95119
"4800 Almaden Expressway","San Jose",CA,95136
"5508 Monterey Rd","San Jose",CA,95138
"1142 N Capitol Ave","San Jose",CA,"95132-2522"
"1702 Oakland Rd","San Jose",CA,95131
"2680 Story Rd","San Jose",CA,"95122-1063"
"2353 Mckee Rd","San Jose",CA,"95116-1609"
"1935 Tully Rd","San Jose",CA,95122
"163 Branham Ln","San Jose",CA,"95136-2300"
"1365 Blossom Hill Rd","San Jose",CA,"95118-3804"
"1299 E Santa Clara St","San Jose",CA,"95116-2370"
"1150 S De Anza Blvd","San Jose",CA,"95129-3629"
"14823 E 14th St","San Leandro",CA,"94578-2921"
"130 Greenhouse Marketplace","San Leandro",CA,94578
"1919 Davis St","San Leandro",CA,94577
"1287 Washington St","San Leandro",CA,"94577-3646"
"275 Madonna Rd","San Luis Obispo",CA,"93401-3109"
"1420 El Camino Real","San Mateo",CA,94404
"3320 San Pablo Dam Rd","San Pablo",CA,94806
"14480 San Pablo Ave","San Pablo",CA,"94806-3334"
"2114 4th St","San Rafael",CA,"94901-2650"
"190 Merrydale Rd","San Rafael",CA,"94913-4013"
"2481 San Ramon Valley Rd","San Ramon",CA,"94583-1601"
"21001 San Ramon Valley Blvd","San Ramon",CA,94583
"990 Playa Avenue","Sand City",CA,93955
"29 N Milpas St","Santa Barbara",CA,93103
"3940 State St","Santa Barbara",CA,"93105-3114"
"1906 Cliff Dr","Santa Barbara",CA,93109
"1213 State St","Santa Barbara",CA,93101
"3509 Home Stead Rd","Santa Clara",CA,"95051-5116"
"1451 Coleman Ave","Santa Clara",CA,95050
"3895 Stevens Creek Blvd","Santa Clara",CA,"95051-7336"
"2850 Augustine Dr","Santa Clara",CA,"95054-2801"
"1421 Mission St","Santa Cruz",CA,"95060-4738"
"1210 Ocean Ave","Santa Cruz",CA,95060
"1710 S Broadway","Santa Maria",CA,93458
"320 N Broadway","Santa Maria",CA,"93454-4417"
"2280 Skyway Drive","Santa Maria",CA,93455
"1407 Bradley Rd","Santa Maria",CA,93454
"1264 Mendocino Ave","Santa Rosa",CA,"95402-4313"
"50 Mission Cir","Santa Rosa",CA,"95405-5303"
"2521 Guerneville Rd","Santa Rosa",CA,"95401-4018"
"2642 Santa Rosa Ave","Santa Rosa",CA,95407
"879 Hopper Ave","Santa Rosa",CA,95403
"18578 Prospect Road",Saratoga,CA,95070
"259 Mount Hermon Rd","Scotts Valley",CA,"95066-4037"
"1516 Canyon Del Rey Boulevard",Seaside,CA,"93955-3501"
"1215 S Front St",Soledad,CA,"93960-2975"
"18988 Sonoma Hwy",Sonoma,CA,"95476-5417"
"587 Elcamino Real","South San Francisco",CA,"94080-4402"
"2298 Gellert Blvd","South San Francisco",CA,"94080-5411"
"381 S Airport Blvd","South San Francisco",CA,94080
"696 N Mathilda Ave",Sunnyvale,CA,94085
"556 E El Camino Real",Sunnyvale,CA,94086
"550 Lawrence Expy",Sunnyvale,CA,"94086-4043"
"115 N Orchard Ave",Ukiah,CA,"95482-4501"
"1310 N State St",Ukiah,CA,95482
"27 Union Square","Union City",CA,"94587-3557"
"30600 Dyer St","Union City",CA,94587
"902 Admiral Callaghan Ln",Vallejo,CA,"94590-3680"
"2565 Springs Rd",Vallejo,CA,"94591-5612"
"170 Lincoln Rd E",Vallejo,CA,"94591-8206"
"416 E Lincoln Rd",Vallejo,CA,94591
"5200 Sonoma Blvd",Vallejo,CA,94589
"3289 Sonoma Blvd",Vallejo,CA,"94590-2911"
"1459 Main St",Watsonville,CA,95076
"190 Main St",Watsonville,CA,95076
"1598 Freedom Blvd",Watsonville,CA,"95076-3007"
"1488 S Main St",Willits,CA,"95490-4301"
"125 Windsor River Rd",Windsor,CA,95492